HIMAWARI-8              
1 40267U 14060A   23329.90773821 -.00000267  00000+0  00000+0 0  9990
2 40267   0.0254  77.8934 0001007 205.9019 248.2279  1.00268707 33397
